NORAD_CAT_ID,OBJECT_NAME,OBJECT_TYPE,EPOCH,MEAN_MOTION,ECCENTRICITY,INCLINATION,RA_OF_ASC_NODE,ARG_OF_PERICENTER,MEAN_ANOMALY,BSTAR,MEAN_MOTION_DOT,MEAN_MOTION_DDOT,TLE_LINE0,TLE_LINE1,TLE_LINE2,SEMIMAJOR_AXIS,PERIOD,APOGEE,PERIGEE,DECAYED
49411.0,STARLINK-3162,PAYLOAD,2022-04-06 22:00:00,15.08844437,0.0001982,53.2148,171.0928,38.3252,194.4534,-0.00067537,-0.00011022,0.0,0 STARLINK-3162,1 49411U 21104D   22096.91667824 -.00011022  00000-0 -67537-3 0  9998,2 49411  53.2148 171.0928 0001982  38.3252 194.4534 15.08844437  3563,6917.8669999999975,95.437,541.1030000000002,538.361,0.0
49411.0,STARLINK-3162,PAYLOAD,2022-04-07 14:00:01,15.08849952,0.0002171,53.2151,168.1013,36.5035,219.4844,-0.00014716,-2.63e-05,0.0,0 STARLINK-3162,1 49411U 21104D   22097.58334491 -.00002630  00000-0 -14716-3 0  9999,2 49411  53.2151 168.1013 0002171  36.5035 219.4844 15.08849952  3614,6917.85,95.437,541.217,538.2130000000002,0.0
49411.0,STARLINK-3162,PAYLOAD,2022-04-07 20:00:01,15.08858084,0.0002058,53.2149,166.97799999999995,35.7364,138.9619,-0.0012444,-0.00020049,0.0,0 STARLINK-3162,1 49411U 21104D   22097.83334491 -.00020049  00000-0 -12444-2 0  9996,2 49411  53.2149 166.9780 0002058  35.7364 138.9619 15.08858084 23699,6917.825,95.436,541.114,538.266,0.0
49411.0,STARLINK-3162,PAYLOAD,2022-04-07 22:00:00,15.08850428,0.0001991,53.2152,166.6034,36.1808,231.4216,-0.00019246,-3.351e-05,0.0,0 STARLINK-3162,1 49411U 21104D   22097.91667824 -.00003351  00000-0 -19246-3 0  9999,2 49411  53.2152 166.6034 0001991  36.1808 231.4216 15.08850428  3600,6917.849,95.437,541.091,538.336,0.0
49411.0,STARLINK-3162,PAYLOAD,2022-04-08 06:00:00,15.08884925,0.0001928,53.2154,165.1067,38.6687,240.5407,-0.0025007,-0.00039916,0.0,0 STARLINK-3162,1 49411U 21104D   22098.25001157 -.00039916  00000-0 -25007-2 0  9995,2 49411  53.2154 165.1067 0001928  38.6687 240.5407 15.08884925 23754,6917.743,95.435,540.942,538.274,0.0
49411.0,STARLINK-3162,PAYLOAD,2022-04-08 14:00:03,15.08833586,0.0002149,53.2155,163.6118,34.074,256.8945,0.0023963,0.00038049,0.0,0 STARLINK-3162,1 49411U 21104D   22098.58336806  .00038049  00000-0  23963-2 0  9996,2 49411  53.2155 163.6118 0002149  34.0740 256.8945 15.08833586  3607,6917.9,95.438,541.252,538.278,0.0
49411.0,STARLINK-3162,PAYLOAD,2022-04-08 22:00:00,15.08847401,0.0002033,53.2155,162.114,37.4676,264.983,-0.0010176,-0.0001645,0.0,0 STARLINK-3162,1 49411U 21104D   22098.91667824 -.00016450  00000-0 -10176-2 0  9996,2 49411  53.2155 162.1140 0002033  37.4676 264.9830 15.08847401  3573,6917.858,95.437,541.129,538.316,0.0
49411.0,STARLINK-3162,PAYLOAD,2022-04-09 06:00:00,15.08851892,0.0002055,53.2158,160.6176,42.1953,271.8437,-0.0023334,-0.00037246,0.0,0 STARLINK-3162,1 49411U 21104D   22099.25001157 -.00037246  00000-0 -23334-2 0  9991,2 49411  53.2158 160.6176 0002055  42.1953 271.8437 15.08851892 23901,6917.844,95.437,541.131,538.2869999999998,0.0
49411.0,STARLINK-3162,PAYLOAD,2022-04-09 14:00:01,15.08800895,0.0002282,53.2157,159.1228,39.0738,286.5562,0.0030514,0.00048559,0.0,0 STARLINK-3162,1 49411U 21104D   22099.58334491  .00048559  00000-0  30514-2 0  9992,2 49411  53.2157 159.1228 0002282  39.0738 286.5562 15.08800895  3603,6918.0,95.44,541.444,538.286,0.0
49411.0,STARLINK-3162,PAYLOAD,2022-04-09 22:00:00,15.08832305,0.0002108,53.2156,157.6249,41.8537,295.3562,0.00081261,0.00012666,0.0,0 STARLINK-3162,1 49411U 21104D   22099.91667824  .00012666  00000-0  81261-3 0  9994,2 49411  53.2156 157.6249 0002108  41.8537 295.3562 15.08832305 24009,6917.904,95.438,541.227,538.311,0.0
49411.0,STARLINK-3162,PAYLOAD,2022-04-10 14:00:01,15.08846959,0.0002224,53.2155,154.6338,38.5565,321.8566,0.00027898,4.155e-05,0.0,0 STARLINK-3162,1 49411U 21104D   22100.58334491  .00004155  00000-0  27898-3 0  9991,2 49411  53.2155 154.6338 0002224  38.5565 321.8566 15.08846959  3610,6917.859,95.437,541.263,538.186,0.0
49411.0,STARLINK-3162,PAYLOAD,2022-04-10 22:00:00,15.08838348,0.0001978,53.2153,153.1357,39.7639,332.2778,-0.0013531,-0.00021758,0.0,0 STARLINK-3162,1 49411U 21104D   22100.91667824 -.00021758  00000-0 -13531-2 0  9995,2 49411  53.2153 153.1357 0001978  39.7639 332.2778 15.08838348  3617,6917.885,95.438,541.119,538.382,0.0
49411.0,STARLINK-3162,PAYLOAD,2022-04-11 06:00:00,15.08840193,0.0001968,53.2155,151.6398,39.7106,343.9031,-0.00094716,-0.00015331,0.0,0 STARLINK-3162,1 49411U 21104D   22101.25001157 -.00015331  00000-0 -94716-3 0  9999,2 49411  53.2155 151.6398 0001968  39.7106 343.9031 15.08840193 24216,6917.88,95.438,541.106,538.383,0.0
49411.0,STARLINK-3162,PAYLOAD,2022-04-11 14:00:01,15.08815791,0.0002125,53.2152,150.1448,35.0772,0.1196,0.001334,0.00020993,0.0,0 STARLINK-3162,1 49411U 21104D   22101.58334491  .00020993  00000-0  13340-2 0  9996,2 49411  53.2152 150.1448 0002125  35.0772   0.1196 15.08815791  3618,6917.954000000002,95.439,541.289,538.349,0.0
49411.0,STARLINK-3162,PAYLOAD,2022-04-11 22:00:00,15.0879947,0.0001899,53.215,148.6467,37.2987,9.482,0.00092568,0.00014459,0.0,0 STARLINK-3162,1 49411U 21104D   22101.91667824  .00014459  00000-0  92568-3 0  9992,2 49411  53.2150 148.6467 0001899  37.2987   9.4820 15.08799470  3596,6918.004,95.44,541.183,538.556,0.0
49411.0,STARLINK-3162,PAYLOAD,2022-04-12 06:00:02,15.08829315,0.0001973,53.2151,147.1509,38.1935,20.1957,-0.0015087,-0.00024212,0.0,0 STARLINK-3162,1 49411U 21104D   22102.25002315 -.00024212  00000-0 -15087-2 0  9998,2 49411  53.2151 147.1509 0001973  38.1935  20.1957 15.08829315 24365,6917.913000000001,95.438,541.143,538.413,0.0
49411.0,STARLINK-3162,PAYLOAD,2022-04-12 14:00:01,15.08794639,0.0002147,53.2148,145.6559,33.9977,35.9003,0.0029126,0.00046314,0.0,0 STARLINK-3162,1 49411U 21104D   22102.58334491  .00046314  00000-0  29126-2 0  9991,2 49411  53.2148 145.6559 0002147  33.9977  35.9003 15.08794639  3602,6918.019,95.44,541.369,538.399,0.0
49411.0,STARLINK-3162,PAYLOAD,2022-04-12 22:00:00,15.08793593,0.0001926,53.2149,144.1576,36.1563,45.3107,0.0049967,0.00080037,0.0,0 STARLINK-3162,1 49411U 21104D   22102.91667824  .00080037  00000-0  49967-2 0  9992,2 49411  53.2149 144.1576 0001926  36.1563  45.3107 15.08793593 24461,6918.022,95.44,541.22,538.555,0.0
49411.0,STARLINK-3162,PAYLOAD,2022-04-13 14:00:03,15.08853066,0.0002211,53.2146,141.1664,32.5312,72.2552,0.0014562,0.00022972,0.0,0 STARLINK-3162,1 49411U 21104D   22103.58336806  .00022972  00000-0  14562-2 0  9996,2 49411  53.2146 141.1664 0002211  32.5312  72.2552 15.08853066 24569,6917.84,95.437,541.235,538.1759999999998,0.0
49411.0,STARLINK-3162,PAYLOAD,2022-04-13 22:00:00,15.08834401,0.0002063,53.2147,139.6682,37.4071,78.8856,0.0015265,0.00024086,0.0,0 STARLINK-3162,1 49411U 21104D   22103.91667824  .00024086  00000-0  15265-2 0  9999,2 49411  53.2147 139.6682 0002063  37.4071  78.8856 15.08834401  3628,6917.898,95.438,541.19,538.335,0.0
49411.0,STARLINK-3162,PAYLOAD,2022-04-14 06:00:00,15.08864704,0.000221,53.2149,138.1724,39.1587,88.7249,-0.0015571,-0.00025002,0.0,0 STARLINK-3162,1 49411U 21104D   22104.25001157 -.00025002  00000-0 -15571-2 0  9999,2 49411  53.2149 138.1724 0002210  39.1587  88.7249 15.08864704 24668,6917.805,95.436,541.1990000000002,538.141,0.0
49411.0,STARLINK-3162,PAYLOAD,2022-04-14 14:00:01,15.08844872,0.0002343,53.2147,136.6769,34.6062,104.883,-0.0005097,-8.393e-05,0.0,0 STARLINK-3162,1 49411U 21104D   22104.58334491 -.00008393  00000-0 -50970-3 0  9992,2 49411  53.2147 136.6769 0002343  34.6062 104.8830 15.08844872  3604,6917.865,95.437,541.351,538.11,0.0
49411.0,STARLINK-3162,PAYLOAD,2022-04-14 22:00:00,15.08809955,0.0002115,53.2148,135.1787,36.7471,114.3562,0.0024767,0.00039317,0.0,0 STARLINK-3162,1 49411U 21104D   22104.91667824  .00039317  00000-0  24767-2 0  9990,2 49411  53.2148 135.1787 0002115  36.7471 114.3562 15.08809955  3604,6917.972,95.439,541.3,538.374,0.0
49411.0,STARLINK-3162,PAYLOAD,2022-04-15 06:00:00,15.08857785,0.0002249,53.215,133.683,37.8494,124.837,-0.001121,-0.00018094,0.0,0 STARLINK-3162,1 49411U 21104D   22105.25001157 -.00018094  00000-0 -11210-2 0  9999,2 49411  53.2150 133.6830 0002249  37.8494 124.8370 15.08857785 24817,6917.826,95.436,541.247,538.135,0.0
49411.0,STARLINK-3162,PAYLOAD,2022-04-15 11:38:28,15.08850163,0.0002159,53.2164,132.627,39.7247,320.3903,-1.5282e-05,-5.32e-06,0.0,0 STARLINK-3162,1 49411U 21104D   22105.48505700 -.00000532  00000-0 -15282-4 0  9990,2 49411  53.2164 132.6270 0002159  39.7247 320.3903 15.08850163 23767,6917.849,95.437,541.2080000000002,538.221,0.0
49411.0,STARLINK-3162,PAYLOAD,2022-04-15 22:00:00,15.0884914,0.0002148,53.2148,130.6889,37.6821,148.2274,0.00068428,0.00010622,0.0,0 STARLINK-3162,1 49411U 21104D   22105.91667824  .00010622  00000-0  68428-3 0  9992,2 49411  53.2148 130.6889 0002148  37.6821 148.2274 15.08849140 24915,6917.852,95.437,541.203,538.231,0.0
49411.0,STARLINK-3162,PAYLOAD,2022-04-16 06:00:00,15.08846464,0.000226,53.2159,129.1903,36.4586,161.0341,-0.0012704,-0.00020454,0.0,0 STARLINK-3162,1 49411U 21104D   22106.25001157 -.00020454  00000-0 -12704-2 0  9992,2 49411  53.2159 129.1903 0002260  36.4586 161.0341 15.08846464 24966,6917.861,95.437,541.289,538.1619999999998,0.0
49411.0,STARLINK-3162,PAYLOAD,2022-04-16 14:00:01,15.08833281,0.0002358,53.2146,127.6975,33.8867,175.1934,0.00099121,0.0001551999999999,0.0,0 STARLINK-3162,1 49411U 21104D   22106.58334491  .00015520  00000-0  99121-3 0  9993,2 49411  53.2146 127.6975 0002358  33.8867 175.1934 15.08833281  3565,6917.901,95.438,541.3969999999998,538.135,0.0
49411.0,STARLINK-3162,PAYLOAD,2022-04-16 22:00:01,15.08823108,0.0002132,53.2147,126.1992,37.3694,183.3746,0.0023198,0.00036808,0.0,0 STARLINK-3162,1 49411U 21104D   22106.91668981  .00036808  00000-0  23198-2 0  9996,2 49411  53.2147 126.1992 0002132  37.3694 183.3746 15.08823108 25064,6917.932,95.439,541.2719999999998,538.322,0.0
